GLOBALSTAR M057 [-]     
1 25943U 99058A   23230.00790854 -.00000117  00000+0 -21874-3 0  9992
2 25943  51.9986  87.2284 0003394  74.1743 285.9480 12.24772202 85007
GLOBALSTAR M059 [-]     
1 25944U 99058B   23229.73485748 -.00000091  00000+0 -64157-4 0  9997
2 25944  51.9983 218.2107 0000361  65.1984 105.9018 11.99953032 82427
GLOBALSTAR M056 [-]     
1 25945U 99058C   23230.05455740 -.00000093  00000+0 -58925-4 0  9992
2 25945  51.9930 236.5006 0000943 281.1469 114.2220 12.04767585 82011
GLOBALSTAR M031 [-]     
1 25946U 99058D   23230.25890444 -.00000026  00000+0  64997-3 0  9999
2 25946  51.9947 168.2757 0001419 274.1464 236.5730 12.15994166 83407
GLOBALSTAR M039 [-]     
1 25961U 99062A   23230.23491119 -.00000036  00000+0  37594-3 0  9999
2 25961  51.9838 146.1054 0002801 316.9780  43.0867 12.62268633 95769
GLOBALSTAR M034 [-]     
1 25962U 99062B   23228.94976164 -.00000056  00000+0  40247-3 0  9994
2 25962  51.9887 313.5684 0014151 213.4352 319.2057 11.79414051 59291
GLOBALSTAR M029 [-]     
1 25963U 99062C   23230.41980579 -.00000055  00000+0  38589-3 0  9990
2 25963  51.9801 104.9641 0001874 249.6906 162.1652 11.99866611 88896
GLOBALSTAR M061 [-]     
1 25964U 99062D   23229.78147453 -.00000054  00000+0  42356-3 0  9991
2 25964  51.9783 126.5708 0005787 141.4028 259.4666 11.76749309 42660
